{
  "type": "FeatureCollection",
  "features": [
    {
      "type": "Feature",
      "properties": {
        "norad_id": 15362,
        "name": "NOVA 3",
        "group": "nnss",
        "lat": 37.704626825262466,
        "lon": 80.394819133643,
        "alt_km": 1156.950166891109,
        "timestamp": "2025-12-08T21:31:04.936321+00:00",
        "meta_object_name": "NOVA 3",
        "meta_object_id": "1984-110A",
        "meta_epoch": "2025-12-08T12:18:24.606720",
        "meta_mean_motion": 13.23043791,
        "meta_eccentricity": 0.0030817,
        "meta_inclination": 90.1223,
        "meta_ra_of_asc_node": 80.4849,
        "meta_arg_of_pericenter": 343.9,
        "meta_mean_anomaly": 26.6352,
        "meta_ephemeris_type": 0,
        "meta_classification_type": "U",
        "meta_norad_cat_id": 15362,
        "meta_element_set_no": 999,
        "meta_rev_at_epoch": 98643,
        "meta_bstar": 0.00023409866,
        "meta_mean_motion_dot": 1.07e-06,
        "meta_mean_motion_ddot": 0,
        "tle_line1": "1 15362U 84110A   25342.51278480  .00000107  00000+0  23410-3 0  9992",
        "tle_line2": "2 15362  90.1223  80.4849 0030817 343.9000  26.6352 13.23043791986434"
      },
      "geometry": {
        "type": "Point",
        "coordinates": [
          80.394819133643,
          37.704626825262466
        ]
      }
    },
    {
      "type": "Feature",
      "properties": {
        "norad_id": 15935,
        "name": "OSCAR 30",
        "group": "nnss",
        "lat": -62.61883120030918,
        "lon": 100.10272371788658,
        "alt_km": 1248.0331076832254,
        "timestamp": "2025-12-08T21:31:04.936332+00:00",
        "meta_object_name": "OSCAR 30",
        "meta_object_id": "1985-066A",
        "meta_epoch": "2025-12-08T09:36:41.782176",
        "meta_mean_motion": 13.36077247,
        "meta_eccentricity": 0.01694104,
        "meta_inclination": 90.1649,
        "meta_ra_of_asc_node": 99.7761,
        "meta_arg_of_pericenter": 96.0136,
        "meta_mean_anomaly": 337.3993,
        "meta_ephemeris_type": 0,
        "meta_classification_type": "U",
        "meta_norad_cat_id": 15935,
        "meta_element_set_no": 999,
        "meta_rev_at_epoch": 96395,
        "meta_bstar": 0.00026620341,
        "meta_mean_motion_dot": 1.58e-06,
        "meta_mean_motion_ddot": 0,
        "tle_line1": "1 15935U 85066A   25342.40048359  .00000158  00000+0  26620-3 0  9999",
        "tle_line2": "2 15935  90.1649  99.7761 0169410  96.0136 337.3993 13.36077247963958"
      },
      "geometry": {
        "type": "Point",
        "coordinates": [
          100.10272371788658,
          -62.61883120030918
        ]
      }
    },
    {
      "type": "Feature",
      "properties": {
        "norad_id": 15936,
        "name": "OSCAR 24",
        "group": "nnss",
        "lat": 13.450683547202521,
        "lon": 92.19459285862943,
        "alt_km": 1117.7315744604539,
        "timestamp": "2025-12-08T21:31:04.936342+00:00",
        "meta_object_name": "OSCAR 24",
        "meta_object_id": "1985-066B",
        "meta_epoch": "2025-12-08T14:18:54.907776",
        "meta_mean_motion": 13.3593494,
        "meta_eccentricity": 0.01704516,
        "meta_inclination": 90.1788,
        "meta_ra_of_asc_node": 92.2321,
        "meta_arg_of_pericenter": 101.9014,
        "meta_mean_anomaly": 271.0872,
        "meta_ephemeris_type": 0,
        "meta_classification_type": "U",
        "meta_norad_cat_id": 15936,
        "meta_element_set_no": 999,
        "meta_rev_at_epoch": 96588,
        "meta_bstar": 0.00025540743,
        "meta_mean_motion_dot": 1.52e-06,
        "meta_mean_motion_ddot": 0,
        "tle_line1": "1 15936U 85066B   25342.59646884  .00000152  00000+0  25541-3 0  9992",
        "tle_line2": "2 15936  90.1788  92.2321 0170451 101.9014 271.0872 13.35934940965886"
      },
      "geometry": {
        "type": "Point",
        "coordinates": [
          92.19459285862943,
          13.450683547202521
        ]
      }
    },
    {
      "type": "Feature",
      "properties": {
        "norad_id": 17070,
        "name": "POLAR BEAR",
        "group": "nnss",
        "lat": 27.806755286815918,
        "lon": -175.87078881704193,
        "alt_km": 985.995654687079,
        "timestamp": "2025-12-08T21:31:04.936353+00:00",
        "meta_object_name": "POLAR BEAR",
        "meta_object_id": "1986-088A",
        "meta_epoch": "2025-12-08T14:41:47.065920",
        "meta_mean_motion": 13.75249677,
        "meta_eccentricity": 0.0040717,
        "meta_inclination": 89.6177,
        "meta_ra_of_asc_node": 183.9389,
        "meta_arg_of_pericenter": 131.2462,
        "meta_mean_anomaly": 290.7561,
        "meta_ephemeris_type": 0,
        "meta_classification_type": "U",
        "meta_norad_cat_id": 17070,
        "meta_element_set_no": 999,
        "meta_rev_at_epoch": 95922,
        "meta_bstar": 0.00017092704,
        "meta_mean_motion_dot": 1.76e-06,
        "meta_mean_motion_ddot": 0,
        "tle_line1": "1 17070U 86088A   25342.61235030  .00000176  00000+0  17093-3 0  9997",
        "tle_line2": "2 17070  89.6177 183.9389 0040717 131.2462 290.7561 13.75249677959222"
      },
      "geometry": {
        "type": "Point",
        "coordinates": [
          -175.87078881704193,
          27.806755286815918
        ]
      }
    },
    {
      "type": "Feature",
      "properties": {
        "norad_id": 18361,
        "name": "OSCAR 27",
        "group": "nnss",
        "lat": -13.974959354484113,
        "lon": 79.2216831692586,
        "alt_km": 1122.6669439678517,
        "timestamp": "2025-12-08T21:31:04.936363+00:00",
        "meta_object_name": "OSCAR 27",
        "meta_object_id": "1987-080A",
        "meta_epoch": "2025-12-08T12:39:36.421632",
        "meta_mean_motion": 13.44905496,
        "meta_eccentricity": 0.01026167,
        "meta_inclination": 90.3742,
        "meta_ra_of_asc_node": 79.1147,
        "meta_arg_of_pericenter": 236.0045,
        "meta_mean_anomaly": 123.1321,
        "meta_ephemeris_type": 0,
        "meta_classification_type": "U",
        "meta_norad_cat_id": 18361,
        "meta_element_set_no": 999,
        "meta_rev_at_epoch": 87500,
        "meta_bstar": 0.00031991427,
        "meta_mean_motion_dot": 2.01e-06,
        "meta_mean_motion_ddot": 0,
        "tle_line1": "1 18361U 87080A   25342.52750488  .00000201  00000+0  31991-3 0  9995",
        "tle_line2": "2 18361  90.3742  79.1147 0102616 236.0045 123.1321 13.44905496875009"
      },
      "geometry": {
        "type": "Point",
        "coordinates": [
          79.2216831692586,
          -13.974959354484113
        ]
      }
    },
    {
      "type": "Feature",
      "properties": {
        "norad_id": 18362,
        "name": "OSCAR 29",
        "group": "nnss",
        "lat": 4.594704364390009,
        "lon": 79.55688950785112,
        "alt_km": 1116.1558657341884,
        "timestamp": "2025-12-08T21:31:04.936374+00:00",
        "meta_object_name": "OSCAR 29",
        "meta_object_id": "1987-080B",
        "meta_epoch": "2025-12-08T07:30:41.040864",
        "meta_mean_motion": 13.44447272,
        "meta_eccentricity": 0.01037513,
        "meta_inclination": 90.3754,
        "meta_ra_of_asc_node": 79.5652,
        "meta_arg_of_pericenter": 260.0358,
        "meta_mean_anomaly": 160.5217,
        "meta_ephemeris_type": 0,
        "meta_classification_type": "U",
        "meta_norad_cat_id": 18362,
        "meta_element_set_no": 999,
        "meta_rev_at_epoch": 87450,
        "meta_bstar": 0.00028461817,
        "meta_mean_motion_dot": 1.78e-06,
        "meta_mean_motion_ddot": 0,
        "tle_line1": "1 18362U 87080B   25342.31297501  .00000178  00000+0  28462-3 0  9997",
        "tle_line2": "2 18362  90.3754  79.5652 0103751 260.0358 160.5217 13.44447272874509"
      },
      "geometry": {
        "type": "Point",
        "coordinates": [
          79.55688950785112,
          4.594704364390009
        ]
      }
    },
    {
      "type": "Feature",
      "properties": {
        "norad_id": 19070,
        "name": "OSCAR 23",
        "group": "nnss",
        "lat": 9.078747659493528,
        "lon": 16.222155691377093,
        "alt_km": 1299.2870638663426,
        "timestamp": "2025-12-08T21:31:04.936395+00:00",
        "meta_object_name": "OSCAR 23",
        "meta_object_id": "1988-033A",
        "meta_epoch": "2025-12-08T14:50:46.330656",
        "meta_mean_motion": 13.2778637,
        "meta_eccentricity": 0.01891788,
        "meta_inclination": 90.3216,
        "meta_ra_of_asc_node": 16.2649,
        "meta_arg_of_pericenter": 191.3924,
        "meta_mean_anomaly": 289.6989,
        "meta_ephemeris_type": 0,
        "meta_classification_type": "U",
        "meta_norad_cat_id": 19070,
        "meta_element_set_no": 999,
        "meta_rev_at_epoch": 82198,
        "meta_bstar": 0.00022386609,
        "meta_mean_motion_dot": 1.19e-06,
        "meta_mean_motion_ddot": 0,
        "tle_line1": "1 19070U 88033A   25342.61859179  .00000119  00000+0  22387-3 0  9996",
        "tle_line2": "2 19070  90.3216  16.2649 0189178 191.3924 289.6989 13.27786370821984"
      },
      "geometry": {
        "type": "Point",
        "coordinates": [
          16.222155691377093,
          9.078747659493528
        ]
      }
    }
  ]
}